start=new Date('2022-10-10T00:00:00.000Z').valueOf();
sats=[{"DECAY_DATE":null,"REV_AT_EPOCH":"130","COUNTRY_CODE":"US","OBJECT_ID":"2022-114X","SEMIMAJOR_AXIS":"6727.746","TLE_LINE1":"1 53839U 22114X   22282.91667824 -.00091257  00000-0 -65142-3 0  9994","ARG_OF_PERICENTER":"88.1065","OBJECT_NAME":"STARLINK-4784","SITE":"AFETR","PERIOD":"91.530","REF_FRAME":"TEME","BSTAR":"-0.00065142000000","EPHEMERIS_TYPE":"0","OBJECT_TYPE":"PAYLOAD","INCLINATION":"53.2156","RCS_SIZE":"LARGE","MEAN_ELEMENT_THEORY":"SGP4","MEAN_ANOMALY":"82.0150","ELEMENT_SET_NO":"999","CLASSIFICATION_TYPE":"U","LAUNCH_DATE":"2022-09-19","MEAN_MOTION_DOT":"-0.00091257","TLE_LINE2":"2 53839  53.2156 155.4895 0001073  88.1065  82.0150 15.73252165  1305","FILE":"3598879","NORAD_CAT_ID":"53839","TIME_SYSTEM":"UTC","ECCENTRICITY":"0.00010730","EPOCH":"2022-10-09T22:00:00.999936","PERIAPSIS":"348.890","RA_OF_ASC_NODE":"155.4895","APOAPSIS":"350.333","MEAN_MOTION_DDOT":"0.0000000000000","CENTER_NAME":"EARTH","GP_ID":"214606283","MEAN_MOTION":"15.73252165"},{"GP_ID":"214605961","MEAN_MOTION":"15.73244783","MEAN_MOTION_DDOT":"0.0000000000000","CENTER_NAME":"EARTH","APOAPSIS":"350.365","RA_OF_ASC_NODE":"155.4798","PERIAPSIS":"348.900","EPOCH":"2022-10-09T22:00:00.999936","ECCENTRICITY":"0.00010890","FILE":"3598879","NORAD_CAT_ID":"53840","TIME_SYSTEM":"UTC","LAUNCH_DATE":"2022-09-19","MEAN_MOTION_DOT":"-0.00104049","TLE_LINE2":"2 53840  53.2146 155.4798 0001089 119.8342  53.3109 15.73244783  1307","ELEMENT_SET_NO":"999","CLASSIFICATION_TYPE":"U","MEAN_ELEMENT_THEORY":"SGP4","MEAN_ANOMALY":"53.3109","RCS_SIZE":"LARGE","OBJECT_TYPE":"PAYLOAD","INCLINATION":"53.2146","BSTAR":"-0.00074472000000","EPHEMERIS_TYPE":"0","REF_FRAME":"TEME","PERIOD":"91.531","SITE":"AFETR","SEMIMAJOR_AXIS":"6727.767","TLE_LINE1":"1 53840U 22114Y   22282.91667824 -.00104049  00000-0 -74472-3 0  9996","ARG_OF_PERICENTER":"119.8342","OBJECT_NAME":"STARLINK-4766","OBJECT_ID":"2022-114Y","COUNTRY_CODE":"US","REV_AT_EPOCH":"130","DECAY_DATE":null},{"MEAN_ANOMALY":"74.5611","MEAN_ELEMENT_THEORY":"SGP4","CLASSIFICATION_TYPE":"U","ELEMENT_SET_NO":"999","TIME_SYSTEM":"UTC","FILE":"3598879","NORAD_CAT_ID":"53841","ECCENTRICITY":"0.00011420","TLE_LINE2":"2 53841  53.2151 155.4839 0001142  97.3617  74.5611 15.73236267  1306","LAUNCH_DATE":"2022-09-19","MEAN_MOTION_DOT":"-0.00041717","EPOCH":"2022-10-09T22:00:00.999936","PERIAPSIS":"348.888","RA_OF_ASC_NODE":"155.4839","CENTER_NAME":"EARTH","MEAN_MOTION_DDOT":"0.0000000000000","APOAPSIS":"350.425","MEAN_MOTION":"15.73236267","GP_ID":"214605704","REV_AT_EPOCH":"130","DECAY_DATE":null,"OBJECT_ID":"2022-114Z","COUNTRY_CODE":"US","TLE_LINE1":"1 53841U 22114Z   22282.91667824 -.00041717  00000-0 -29384-3 0  9991","SEMIMAJOR_AXIS":"6727.792","ARG_OF_PERICENTER":"97.3617","OBJECT_NAME":"STARLINK-4750","SITE":"AFETR","PERIOD":"91.531","EPHEMERIS_TYPE":"0","BSTAR":"-0.00029384000000","REF_FRAME":"TEME","RCS_SIZE":"LARGE","INCLINATION":"53.2151","OBJECT_TYPE":"PAYLOAD"},{"PERIAPSIS":"349.036","RA_OF_ASC_NODE":"155.4776","MEAN_MOTION_DDOT":"0.0000000000000","CENTER_NAME":"EARTH","APOAPSIS":"350.345","GP_ID":"214606441","MEAN_MOTION":"15.73224376","MEAN_ELEMENT_THEORY":"SGP4","MEAN_ANOMALY":"82.9249","ELEMENT_SET_NO":"999","CLASSIFICATION_TYPE":"U","ECCENTRICITY":"0.00009730","FILE":"3598879","NORAD_CAT_ID":"53842","TIME_SYSTEM":"UTC","LAUNCH_DATE":"2022-09-19","MEAN_MOTION_DOT":"-0.00007481","TLE_LINE2":"2 53842  53.2145 155.4776 0000973  91.3861  82.9249 15.73224376  1304","EPOCH":"2022-10-09T22:00:00.999936","SITE":"AFETR","PERIOD":"91.532","BSTAR":"-0.00004888400000","EPHEMERIS_TYPE":"0","REF_FRAME":"TEME","RCS_SIZE":"LARGE","OBJECT_TYPE":"PAYLOAD","INCLINATION":"53.2145","REV_AT_EPOCH":"130","DECAY_DATE":null,"OBJECT_ID":"2022-114AA","COUNTRY_CODE":"US","TLE_LINE1":"1 53842U 22114AA  22282.91667824 -.00007481  00000-0 -48884-4 0  9999","OBJECT_NAME":"STARLINK-4754","SEMIMAJOR_AXIS":"6727.826","ARG_OF_PERICENTER":"91.3861"},{"EPOCH":"2022-10-09T22:00:00.999936","ECCENTRICITY":"0.00010830","FILE":"3598879","NORAD_CAT_ID":"53843","TIME_SYSTEM":"UTC","TLE_LINE2":"2 53843  53.2160 155.4799 0001083 101.3783  71.1308 15.73249861  1307","LAUNCH_DATE":"2022-09-19","MEAN_MOTION_DOT":"-0.00015062","CLASSIFICATION_TYPE":"U","ELEMENT_SET_NO":"999","MEAN_ANOMALY":"71.1308","MEAN_ELEMENT_THEORY":"SGP4","MEAN_MOTION":"15.73249861","GP_ID":"214606519","CENTER_NAME":"EARTH","MEAN_MOTION_DDOT":"0.0000000000000","APOAPSIS":"350.347","RA_OF_ASC_NODE":"155.4799","PERIAPSIS":"348.889","ARG_OF_PERICENTER":"101.3783","TLE_LINE1":"1 53843U 22114AB  22282.91667824 -.00015062  00000-0 -10287-3 0  9999","SEMIMAJOR_AXIS":"6727.753","OBJECT_NAME":"STARLINK-4769","OBJECT_ID":"2022-114AB","COUNTRY_CODE":"US","REV_AT_EPOCH":"130","DECAY_DATE":null,"RCS_SIZE":"LARGE","INCLINATION":"53.2160","OBJECT_TYPE":"PAYLOAD","EPHEMERIS_TYPE":"0","BSTAR":"-0.00010287000000","REF_FRAME":"TEME","PERIOD":"91.530","SITE":"AFETR"},{"APOAPSIS":"350.656","MEAN_MOTION_DDOT":"0.0000000000000","CENTER_NAME":"EARTH","GP_ID":"214605545","MEAN_MOTION":"15.73210601","PERIAPSIS":"348.804","RA_OF_ASC_NODE":"155.4765","MEAN_MOTION_DOT":"0.00019420","LAUNCH_DATE":"2022-09-19","TLE_LINE2":"2 53844  53.2151 155.4765 0001376  96.7023  78.7719 15.73210601  1309","FILE":"3598879","TIME_SYSTEM":"UTC","NORAD_CAT_ID":"53844","ECCENTRICITY":"0.00013760","EPOCH":"2022-10-09T22:00:00.999936","MEAN_ELEMENT_THEORY":"SGP4","MEAN_ANOMALY":"78.7719","ELEMENT_SET_NO":"999","CLASSIFICATION_TYPE":"U","REF_FRAME":"TEME","BSTAR":"0.00014240000000","EPHEMERIS_TYPE":"0","OBJECT_TYPE":"PAYLOAD","INCLINATION":"53.2151","RCS_SIZE":"LARGE","SITE":"AFETR","PERIOD":"91.533","TLE_LINE1":"1 53844U 22114AC  22282.91667824  .00019420  00000-0  14240-3 0  9993","OBJECT_NAME":"STARLINK-4745","SEMIMAJOR_AXIS":"6727.865","ARG_OF_PERICENTER":"96.7023","DECAY_DATE":null,"REV_AT_EPOCH":"130","COUNTRY_CODE":"US","OBJECT_ID":"2022-114AC"},{"OBJECT_NAME":"STARLINK-4753","TLE_LINE1":"1 53845U 22114AD  22282.91667824  .00004068  00000-0  33381-4 0  9994","SEMIMAJOR_AXIS":"6727.883","ARG_OF_PERICENTER":"89.4421","DECAY_DATE":null,"REV_AT_EPOCH":"130","COUNTRY_CODE":"US","OBJECT_ID":"2022-114AD","REF_FRAME":"TEME","BSTAR":"0.00003338100000","EPHEMERIS_TYPE":"0","OBJECT_TYPE":"PAYLOAD","INCLINATION":"53.2156","RCS_SIZE":"LARGE","SITE":"AFETR","PERIOD":"91.533","LAUNCH_DATE":"2022-09-19","MEAN_MOTION_DOT":"0.00004068","TLE_LINE2":"2 53845  53.2156 155.4828 0001123  89.4421  84.3029 15.73204292  1302","TIME_SYSTEM":"UTC","FILE":"3598879","NORAD_CAT_ID":"53845","ECCENTRICITY":"0.00011230","EPOCH":"2022-10-09T22:00:00.999936","MEAN_ELEMENT_THEORY":"SGP4","MEAN_ANOMALY":"84.3029","ELEMENT_SET_NO":"999","CLASSIFICATION_TYPE":"U","APOAPSIS":"350.503","MEAN_MOTION_DDOT":"0.0000000000000","CENTER_NAME":"EARTH","GP_ID":"214606122","MEAN_MOTION":"15.73204292","PERIAPSIS":"348.992","RA_OF_ASC_NODE":"155.4828"},{"SITE":"AFETR","PERIOD":"91.533","BSTAR":"-0.00043412000000","EPHEMERIS_TYPE":"0","REF_FRAME":"TEME","RCS_SIZE":"LARGE","OBJECT_TYPE":"PAYLOAD","INCLINATION":"53.2155","REV_AT_EPOCH":"130","DECAY_DATE":null,"OBJECT_ID":"2022-114AE","COUNTRY_CODE":"US","OBJECT_NAME":"STARLINK-4746","TLE_LINE1":"1 53846U 22114AE  22282.91667824 -.00061117  00000-0 -43412-3 0  9990","SEMIMAJOR_AXIS":"6727.880","ARG_OF_PERICENTER":"117.5964","PERIAPSIS":"348.990","RA_OF_ASC_NODE":"155.4768","MEAN_MOTION_DDOT":"0.0000000000000","CENTER_NAME":"EARTH","APOAPSIS":"350.501","GP_ID":"214606676","MEAN_MOTION":"15.73205273","MEAN_ELEMENT_THEORY":"SGP4","MEAN_ANOMALY":"59.1609","ELEMENT_SET_NO":"999","CLASSIFICATION_TYPE":"U","FILE":"3598879","NORAD_CAT_ID":"53846","ECCENTRICITY":"0.00011230","TIME_SYSTEM":"UTC","LAUNCH_DATE":"2022-09-19","MEAN_MOTION_DOT":"-0.00061117","TLE_LINE2":"2 53846  53.2155 155.4768 0001123 117.5964  59.1609 15.73205273  1304","EPOCH":"2022-10-09T22:00:00.999936"},{"OBJECT_NAME":"STARLINK-4777","TLE_LINE1":"1 53847U 22114AF  22282.91667824 -.00037667  00000-0 -26518-3 0  9992","SEMIMAJOR_AXIS":"6727.900","ARG_OF_PERICENTER":"98.6092","OBJECT_ID":"2022-114AF","COUNTRY_CODE":"US","REV_AT_EPOCH":"130","DECAY_DATE":null,"RCS_SIZE":"LARGE","OBJECT_TYPE":"PAYLOAD","INCLINATION":"53.2147","BSTAR":"-0.00026518000000","EPHEMERIS_TYPE":"0","REF_FRAME":"TEME","PERIOD":"91.533","SITE":"AFETR","EPOCH":"2022-10-09T22:00:00.999936","FILE":"3598879","TIME_SYSTEM":"UTC","NORAD_CAT_ID":"53847","ECCENTRICITY":"0.00012780","LAUNCH_DATE":"2022-09-19","MEAN_MOTION_DOT":"-0.00037667","TLE_LINE2":"2 53847  53.2147 155.4764 0001278  98.6092  76.2587 15.73198333  1307","ELEMENT_SET_NO":"999","CLASSIFICATION_TYPE":"U","MEAN_ELEMENT_THEORY":"SGP4","MEAN_ANOMALY":"76.2587","GP_ID":"214606284","MEAN_MOTION":"15.73198333","MEAN_MOTION_DDOT":"0.0000000000000","CENTER_NAME":"EARTH","APOAPSIS":"350.625","RA_OF_ASC_NODE":"155.4764","PERIAPSIS":"348.905"},{"APOAPSIS":"350.717","MEAN_MOTION_DDOT":"0.0000000000000","CENTER_NAME":"EARTH","GP_ID":"214605962","MEAN_MOTION":"15.73214438","PERIAPSIS":"348.721","RA_OF_ASC_NODE":"155.4715","LAUNCH_DATE":"2022-09-19","MEAN_MOTION_DOT":"-0.00007450","TLE_LINE2":"2 53848  53.2150 155.4715 0001483 107.4271  70.4364 15.73214438  1308","NORAD_CAT_ID":"53848","FILE":"3598879","TIME_SYSTEM":"UTC","ECCENTRICITY":"0.00014830","EPOCH":"2022-10-09T22:00:00.999936","MEAN_ELEMENT_THEORY":"SGP4","MEAN_ANOMALY":"70.4364","ELEMENT_SET_NO":"999","CLASSIFICATION_TYPE":"U","REF_FRAME":"TEME","BSTAR":"-0.00004867400000","EPHEMERIS_TYPE":"0","OBJECT_TYPE":"PAYLOAD","INCLINATION":"53.2150","RCS_SIZE":"LARGE","SITE":"AFETR","PERIOD":"91.532","TLE_LINE1":"1 53848U 22114AG  22282.91667824 -.00007450  00000-0 -48674-4 0  9998","OBJECT_NAME":"STARLINK-4780","SEMIMAJOR_AXIS":"6727.854","ARG_OF_PERICENTER":"107.4271","DECAY_DATE":null,"REV_AT_EPOCH":"130","COUNTRY_CODE":"US","OBJECT_ID":"2022-114AG"}];
